{
  "type": "FeatureCollection",
  "features": [
    {
      "type": "Feature",
      "properties": {
        "norad_id": 39617,
        "name": "ASTRA 5B (EGNOS/PRN 123)",
        "group": "gnss",
        "lat": 0.003375802005213292,
        "lon": 28.754156324900634,
        "alt_km": 35795.622934677594,
        "timestamp": "2025-12-13T18:50:04.673107+00:00",
        "meta_object_name": "ASTRA 5B (EGNOS/PRN 123)",
        "meta_object_id": "2014-011B",
        "meta_epoch": "2025-12-13T04:59:57.842304",
        "meta_mean_motion": 1.00272747,
        "meta_eccentricity": 0.00043371,
        "meta_inclination": 0.0619,
        "meta_ra_of_asc_node": 39.1771,
        "meta_arg_of_pericenter": 227.0619,
        "meta_mean_anomaly": 274.3823,
        "meta_ephemeris_type": 0,
        "meta_classification_type": "U",
        "meta_norad_cat_id": 39617,
        "meta_element_set_no": 999,
        "meta_rev_at_epoch": 4280,
        "meta_bstar": 0,
        "meta_mean_motion_dot": 1.51e-06,
        "meta_mean_motion_ddot": 0,
        "tle_line1": "1 39617U 14011B   25347.20830836  .00000151  00000+0  00000+0 0  9999",
        "tle_line2": "2 39617   0.0619  39.1771 0004337 227.0619 274.3823  1.00272747 42809"
      },
      "geometry": {
        "type": "Point",
        "coordinates": [
          28.754156324900634,
          0.003375802005213292
        ]
      }
    },
    {
      "type": "Feature",
      "properties": {
        "norad_id": 39620,
        "name": "COSMOS 2492 (754)",
        "group": "gnss",
        "lat": -26.61207408748931,
        "lon": 153.48789525644892,
        "alt_km": 19141.063584164076,
        "timestamp": "2025-12-13T18:50:04.673119+00:00",
        "meta_object_name": "COSMOS 2492 (754)",
        "meta_object_id": "2014-012A",
        "meta_epoch": "2025-12-12T02:29:11.116896",
        "meta_mean_motion": 2.1310296,
        "meta_eccentricity": 0.00141989,
        "meta_inclination": 65.408,
        "meta_ra_of_asc_node": 320.2923,
        "meta_arg_of_pericenter": 311.6032,
        "meta_mean_anomaly": 48.2746,
        "meta_ephemeris_type": 0,
        "meta_classification_type": "U",
        "meta_norad_cat_id": 39620,
        "meta_element_set_no": 999,
        "meta_rev_at_epoch": 9125,
        "meta_bstar": 0,
        "meta_mean_motion_dot": -5.5e-07,
        "meta_mean_motion_ddot": 0,
        "tle_line1": "1 39620U 14012A   25346.10360089 -.00000055  00000+0  00000+0 0  9994",
        "tle_line2": "2 39620  65.4080 320.2923 0014198 311.6032  48.2746  2.13102960 91257"
      },
      "geometry": {
        "type": "Point",
        "coordinates": [
          153.48789525644892,
          -26.61207408748931
        ]
      }
    },
    {
      "type": "Feature",
      "properties": {
        "norad_id": 39635,
        "name": "IRNSS-1B",
        "group": "gnss",
        "lat": 1.5043933791369135,
        "lon": 60.93304204371347,
        "alt_km": 35732.904512692374,
        "timestamp": "2025-12-13T18:50:04.673131+00:00",
        "meta_object_name": "IRNSS-1B",
        "meta_object_id": "2014-017A",
        "meta_epoch": "2025-12-11T18:54:44.030304",
        "meta_mean_motion": 1.00285038,
        "meta_eccentricity": 0.00181492,
        "meta_inclination": 29.2271,
        "meta_ra_of_asc_node": 243.6214,
        "meta_arg_of_pericenter": 227.0185,
        "meta_mean_anomaly": 309.1991,
        "meta_ephemeris_type": 0,
        "meta_classification_type": "U",
        "meta_norad_cat_id": 39635,
        "meta_element_set_no": 999,
        "meta_rev_at_epoch": 4291,
        "meta_bstar": 0,
        "meta_mean_motion_dot": 1.07e-06,
        "meta_mean_motion_ddot": 0,
        "tle_line1": "1 39635U 14017A   25345.78800961  .00000107  00000+0  00000+0 0  9993",
        "tle_line2": "2 39635  29.2271 243.6214 0018149 227.0185 309.1991  1.00285038 42916"
      },
      "geometry": {
        "type": "Point",
        "coordinates": [
          60.93304204371347,
          1.5043933791369135
        ]
      }
    },
    {
      "type": "Feature",
      "properties": {
        "norad_id": 39727,
        "name": "LUCH 5V (SDCM/PRN 141)",
        "group": "gnss",
        "lat": 2.240152680779338,
        "lon": 99.88042860218218,
        "alt_km": 35805.95453143401,
        "timestamp": "2025-12-13T18:50:04.673143+00:00",
        "meta_object_name": "LUCH 5V (SDCM/PRN 141)",
        "meta_object_id": "2014-023A",
        "meta_epoch": "2025-12-13T03:37:35.732064",
        "meta_mean_motion": 1.00269087,
        "meta_eccentricity": 0.00045748,
        "meta_inclination": 4.6707,
        "meta_ra_of_asc_node": 71.5351,
        "meta_arg_of_pericenter": 206.6475,
        "meta_mean_anomaly": 313.0453,
        "meta_ephemeris_type": 0,
        "meta_classification_type": "U",
        "meta_norad_cat_id": 39727,
        "meta_element_set_no": 999,
        "meta_rev_at_epoch": 4249,
        "meta_bstar": 0,
        "meta_mean_motion_dot": -2.56e-06,
        "meta_mean_motion_ddot": 0,
        "tle_line1": "1 39727U 14023A   25347.15110801 -.00000256  00000+0  00000+0 0  9998",
        "tle_line2": "2 39727   4.6707  71.5351 0004574 206.6475 313.0453  1.00269087 42497"
      },
      "geometry": {
        "type": "Point",
        "coordinates": [
          99.88042860218218,
          2.240152680779338
        ]
      }
    },
    {
      "type": "Feature",
      "properties": {
        "norad_id": 39741,
        "name": "GPS BIIF-6  (PRN 06)",
        "group": "gnss",
        "lat": -25.781214928552483,
        "lon": 177.32600909201312,
        "alt_km": 20216.267914877666,
        "timestamp": "2025-12-13T18:50:04.673158+00:00",
        "meta_object_name": "GPS BIIF-6  (PRN 06)",
        "meta_object_id": "2014-026A",
        "meta_epoch": "2025-12-12T23:49:07.978944",
        "meta_mean_motion": 2.00561385,
        "meta_eccentricity": 0.00391904,
        "meta_inclination": 56.5834,
        "meta_ra_of_asc_node": 338.7665,
        "meta_arg_of_pericenter": 318.6983,
        "meta_mean_anomaly": 41.0184,
        "meta_ephemeris_type": 0,
        "meta_classification_type": "U",
        "meta_norad_cat_id": 39741,
        "meta_element_set_no": 999,
        "meta_rev_at_epoch": 8480,
        "meta_bstar": 0,
        "meta_mean_motion_dot": -8.6e-07,
        "meta_mean_motion_ddot": 0,
        "tle_line1": "1 39741U 14026A   25346.99245346 -.00000086  00000+0  00000+0 0  9992",
        "tle_line2": "2 39741  56.5834 338.7665 0039190 318.6983  41.0184  2.00561385 84803"
      },
      "geometry": {
        "type": "Point",
        "coordinates": [
          177.32600909201312,
          -25.781214928552483
        ]
      }
    },
    {
      "type": "Feature",
      "properties": {
        "norad_id": 40001,
        "name": "COSMOS 2500 (755)",
        "group": "gnss",
        "lat": 62.544811400805735,
        "lon": 22.104836402559698,
        "alt_km": 19139.240128105255,
        "timestamp": "2025-12-13T18:50:04.673169+00:00",
        "meta_object_name": "COSMOS 2500 (755)",
        "meta_object_id": "2014-032A",
        "meta_epoch": "2025-12-12T17:52:53.552928",
        "meta_mean_motion": 2.13105799,
        "meta_eccentricity": 0.00082294,
        "meta_inclination": 65.343,
        "meta_ra_of_asc_node": 320.0321,
        "meta_arg_of_pericenter": 219.0153,
        "meta_mean_anomaly": 140.9247,
        "meta_ephemeris_type": 0,
        "meta_classification_type": "U",
        "meta_norad_cat_id": 40001,
        "meta_element_set_no": 999,
        "meta_rev_at_epoch": 8948,
        "meta_bstar": 0,
        "meta_mean_motion_dot": -5.8e-07,
        "meta_mean_motion_ddot": 0,
        "tle_line1": "1 40001U 14032A   25346.74506427 -.00000058  00000+0  00000+0 0  9992",
        "tle_line2": "2 40001  65.3430 320.0321 0008229 219.0153 140.9247  2.13105799 89484"
      },
      "geometry": {
        "type": "Point",
        "coordinates": [
          22.104836402559698,
          62.544811400805735
        ]
      }
    },
    {
      "type": "Feature",
      "properties": {
        "norad_id": 40105,
        "name": "GPS BIIF-7  (PRN 09)",
        "group": "gnss",
        "lat": 24.651573950115985,
        "lon": -102.72061709631441,
        "alt_km": 20102.852843003468,
        "timestamp": "2025-12-13T18:50:04.673181+00:00",
        "meta_object_name": "GPS BIIF-7  (PRN 09)",
        "meta_object_id": "2014-045A",
        "meta_epoch": "2025-12-12T01:59:18.865536",
        "meta_mean_motion": 2.00572516,
        "meta_eccentricity": 0.00326941,
        "meta_inclination": 55.2287,
        "meta_ra_of_asc_node": 95.9251,
        "meta_arg_of_pericenter": 119.8618,
        "meta_mean_anomaly": 240.4523,
        "meta_ephemeris_type": 0,
        "meta_classification_type": "U",
        "meta_norad_cat_id": 40105,
        "meta_element_set_no": 999,
        "meta_rev_at_epoch": 8232,
        "meta_bstar": 0,
        "meta_mean_motion_dot": -9e-08,
        "meta_mean_motion_ddot": 0,
        "tle_line1": "1 40105U 14045A   25346.08285724 -.00000009  00000+0  00000+0 0  9998",
        "tle_line2": "2 40105  55.2287  95.9251 0032694 119.8618 240.4523  2.00572516 82323"
      },
      "geometry": {
        "type": "Point",
        "coordinates": [
          -102.72061709631441,
          24.651573950115985
        ]
      }
    }
  ]
}